{
  "type": "FeatureCollection",
  "features": [
    {
      "type": "Feature",
      "properties": {
        "norad_id": 54259,
        "name": "EUTELSAT 10B",
        "group": "eutelsat",
        "lat": -0.024420829332456054,
        "lon": 54.22728177423716,
        "alt_km": 35786.955432585535,
        "timestamp": "2025-12-24T20:42:20.691276+00:00",
        "meta_object_name": "EUTELSAT 10B",
        "meta_object_id": "2022-157A",
        "meta_epoch": "2025-12-24T06:17:59.220672",
        "meta_mean_motion": 1.00269381,
        "meta_eccentricity": 7.276e-05,
        "meta_inclination": 0.0584,
        "meta_ra_of_asc_node": 95.8929,
        "meta_arg_of_pericenter": 53.1792,
        "meta_mean_anomaly": 48.4937,
        "meta_ephemeris_type": 0,
        "meta_classification_type": "U",
        "meta_norad_cat_id": 54259,
        "meta_element_set_no": 999,
        "meta_rev_at_epoch": 1127,
        "meta_bstar": 0,
        "meta_mean_motion_dot": 8.9e-07,
        "meta_mean_motion_ddot": 0,
        "tle_line1": "1 54259U 22157A   25358.26249098  .00000089  00000+0  00000+0 0  9990",
        "tle_line2": "2 54259   0.0584  95.8929 0000727  53.1792  48.4937  1.00269381 11275"
      },
      "geometry": {
        "type": "Point",
        "coordinates": [
          54.22728177423716,
          -0.024420829332456054
        ]
      }
    },
    {
      "type": "Feature",
      "properties": {
        "norad_id": 59346,
        "name": "EUTELSAT 36D",
        "group": "eutelsat",
        "lat": 0.0313832062947982,
        "lon": 80.09193413337694,
        "alt_km": 35785.35543070935,
        "timestamp": "2025-12-24T20:42:20.691288+00:00",
        "meta_object_name": "EUTELSAT 36D",
        "meta_object_id": "2024-059A",
        "meta_epoch": "2025-12-24T06:25:21.015840",
        "meta_mean_motion": 1.00272985,
        "meta_eccentricity": 3.606e-05,
        "meta_inclination": 0.018,
        "meta_ra_of_asc_node": 34.3242,
        "meta_arg_of_pericenter": 327.5215,
        "meta_mean_anomaly": 223.4105,
        "meta_ephemeris_type": 0,
        "meta_classification_type": "U",
        "meta_norad_cat_id": 59346,
        "meta_element_set_no": 999,
        "meta_rev_at_epoch": 639,
        "meta_bstar": 0,
        "meta_mean_motion_dot": 1.77e-06,
        "meta_mean_motion_ddot": 0,
        "tle_line1": "1 59346U 24059A   25358.26760435  .00000177  00000+0  00000+0 0  9996",
        "tle_line2": "2 59346   0.0180  34.3242 0000360 327.5215 223.4105  1.00272985  6399"
      },
      "geometry": {
        "type": "Point",
        "coordinates": [
          80.09193413337694,
          0.0313832062947982
        ]
      }
    }
  ]
}